KUIPER-00079            
1 64826U 25151L   25229.58335648 -.00426959  00000+0 -15968-1 0  9998
2 64826  51.8792 131.9627 0004975 264.3263 199.6822 15.28649480  4491
KUIPER-00080            
1 64827U 25151M   25229.58335648  .00047342  00000+0  15973-2 0  9999
2 64827  51.8790 132.0016 0002926 283.9245 184.3546 15.30231536  5100
KUIPER-00082            
1 64828U 25151N   25228.76200318  .00027737  00000+0  78346-3 0  9994
2 64828  51.8780 135.7024 0004875 250.2448 109.8013 15.36140550  4837
KUIPER-00083            
1 64829U 25151P   25229.03018628  .00026660  00000+0  76208-3 0  9996
2 64829  51.8775 134.4967 0005478 261.1177  98.9189 15.35786219  6060
KUIPER-00084            
1 64830U 25151Q   25229.58335648  .00043807  00000+0  22045-2 0  9993
2 64830  51.8886 133.2126 0007057 248.0929 307.5429 15.16768061  4689
KUIPER-00085            
1 64831U 25151R   25228.75942917  .00023633  00000+0  66634-3 0  9993
2 64831  51.8781 135.6894 0005873 247.5337 112.5027 15.36283847  4834
KUIPER-00086            
1 64832U 25151S   25229.58335648  .00053024  00000+0  15759-2 0  9991
2 64832  51.8776 131.8787 0005951 267.4628 246.7097 15.34226626  4533
KUIPER-00087            
1 64833U 25151T   25228.76414126  .00038970  00000+0  10988-2 0  9992
2 64833  51.8774 135.7220 0004826 241.2258 118.8243 15.36025214  4833
